STARLINK-1760           
1 46341U 20062S   23247.75291673  .00010225  00000+0  70438-3 0  9990
2 46341  53.0538 152.9062 0001953  78.0401 282.0807 15.06395968166571
STARLINK-1762           
1 46342U 20062T   23247.53359681 -.00001188  00000+0 -60821-4 0  9997
2 46342  53.0533 173.8946 0001736  88.3983 271.7205 15.06410325166255
STARLINK-1764           
1 46343U 20062U   23247.72710897 -.00003328  00000+0 -20477-3 0  9999
2 46343  53.0526 153.0249 0001142 111.3982 248.7129 15.06375980166561
STARLINK-1765           
1 46344U 20062V   23247.48014789 -.00011126  00000+0 -72899-3 0  9990
2 46344  53.0539 154.1292 0001905  79.6634 280.4570 15.06409379166500
STARLINK-1767           
1 46345U 20062W   23247.81372588 -.00006616  00000+0 -42575-3 0  9998
2 46345  53.0539 172.6321 0001462 101.5408 258.5745 15.06394330166297
STARLINK-1547           
1 46347U 20062Y   23247.37375193  .00017353  00000+0  11820-2 0  9992
2 46347  53.0538 129.6079 0001306 111.2706 248.8422 15.06368356166660
STARLINK-1553           
1 46348U 20062Z   23247.74922838  .00003067  00000+0  22466-3 0  9994
2 46348  53.0536 152.9248 0001569  88.8931 271.2238 15.06402330166561
STARLINK-1575           
1 46349U 20062AA  23247.08254600  .00025004  00000+0  16926-2 0  9995
2 46349  53.0531 130.9168 0001490  73.0241 287.0911 15.06376780166637
STARLINK-1617           
1 46350U 20062AB  23247.51147196  .00002765  00000+0  20445-3 0  9997
2 46350  53.0530 173.9922 0001055  96.3285 263.7824 15.06399824166252
STARLINK-1646           
1 46351U 20062AC  23247.84874782  .00007445  00000+0  51849-3 0  9994
2 46351  53.0530 152.4784 0001751 100.9002 259.2184 15.06378694166580
STARLINK-1653           
1 46352U 20062AD  23247.76397036 -.00007211  00000+0 -46580-3 0  9997
2 46352  53.0539 152.8586 0001158  99.1686 260.9434 15.06390073166573
STARLINK-1656           
1 46353U 20062AE  23247.23133497  .00023830  00000+0  16118-2 0  9995
2 46353  53.0542 175.2497 0001255  83.6789 276.4343 15.06434325166028
STARLINK-1657           
1 46354U 20062AF  23247.22028215  .00019429  00000+0  13179-2 0  9999
2 46354  53.0545 175.2966 0001335  95.4925 264.6216 15.06448687166029
STARLINK-1661           
1 46355U 20062AG  23247.79162027 -.00001357  00000+0 -72237-4 0  9997
2 46355  53.0537 172.7387 0002022  87.6596 272.4624 15.06396462166293
STARLINK-1665           
1 46356U 20062AH  23247.80636600  .00000083  00000+0  24461-4 0  9992
2 46356  53.0538 172.7081 0001752  73.8615 286.2567 15.06401508166291
STARLINK-1666           
1 46357U 20062AJ  23247.46909626  .00003237  00000+0  23608-3 0  9991
2 46357  53.0539 154.1780 0001331 104.9076 255.2061 15.06405295166521
STARLINK-1690           
1 46358U 20062AK  23247.51516943  .00006532  00000+0  45681-3 0  9990
2 46358  53.0541 173.9773 0002023  73.6427 286.4784 15.06418125166251
STARLINK-1707           
1 46359U 20062AL  23247.82710512  .00010658  00000+0  73346-3 0  9996
2 46359  53.0528 127.5734 0001266  78.4605 281.6526 15.06393756166925
STARLINK-1713           
1 46360U 20062AM  23247.65018802  .00019472  00000+0  13234-2 0  9994
2 46360  53.0534 128.3673 0001384  85.5791 274.5356 15.06375756166901
STARLINK-1722           
1 46361U 20062AN  23247.08896827  .00024634  00000+0  16685-2 0  9992
2 46361  53.0526 130.8788 0001447 103.2810 256.8340 15.06364462166636
STARLINK-1726           
1 46362U 20062AP  23247.39954606  .00020358  00000+0  13829-2 0  9993
2 46362  53.0532 129.4923 0001489  81.5929 278.5228 15.06365980166681
STARLINK-1739           
1 46363U 20062AQ  23247.12583378  .00022084  00000+0  14984-2 0  9990
2 46363  53.0526 130.7143 0001760  87.4012 272.7178 15.06361151166646
STARLINK-1763           
1 46364U 20062AR  23247.06233069  .00021844  00000+0  14822-2 0  9997
2 46364  53.0530 111.5150 0001558  76.0830 284.0332 15.06364464167081
STARLINK-1550           
1 46365U 20062AS  23247.70179004  .00010816  00000+0  74428-3 0  9993
2 46365  53.0534 128.1357 0000900  88.5765 271.5327 15.06379067166881
STARLINK-1651           
1 46366U 20062AT  23247.09360257  .00005078  00000+0  35969-3 0  9999
2 46366  53.0537 130.8680 0001387  76.0475 284.0668 15.06381722166635
STARLINK-1658           
1 46368U 20062AV  23247.75564868  .00001921  00000+0  14790-3 0  9990
2 46368  53.0534 152.8884 0001075 103.8644 256.2465 15.06385291166579
STARLINK-1670           
1 46370U 20062AX  23247.78610276  .00000238  00000+0  34899-4 0  9994
2 46370  53.0525 152.7572 0001330  88.8618 271.2523 15.06379128166576
STARLINK-1688           
1 46371U 20062AY  23247.71236710  .00008675  00000+0  60050-3 0  9995
2 46371  53.0541 153.0944 0002760  90.5363 269.5942 15.06404368166566
STARLINK-1689           
1 46372U 20062AZ  23247.52254273  .00002169  00000+0  16442-3 0  9997
2 46372  53.0536 173.9414 0001668  79.6957 280.4220 15.06404966166258
STARLINK-1711           
1 46374U 20062BB  23247.00559971  .00000064  00000+0  23210-4 0  9999
2 46374  53.0542 106.2658 0001516  93.2561 266.8601 15.06390290166975
STARLINK-1724           
1 46375U 20062BC  23247.08623122  .00026234  00000+0  17754-2 0  9999
2 46375  53.0524 130.9017 0001095  70.5603 289.5504 15.06360966166630
STARLINK-1742           
1 46376U 20062BD  23247.36635625  .00007445  00000+0  51834-3 0  9993
2 46376  53.0530 129.6407 0001130 106.0847 254.0266 15.06387114166671
STARLINK-1758           
1 46380U 20062BH  23247.73079985 -.00012013  00000+0 -78932-3 0  9997
2 46380  53.0531 153.0054 0001596  96.6165 263.5005 15.06382463166565
STARLINK-1769           
1 46382U 20062BK  23247.38110359  .00006875  00000+0  48027-3 0  9990
2 46382  53.0543 129.5779 0001359  96.1133 264.0010 15.06377674166682
STARLINK-1770           
1 46383U 20062BL  23247.76581317 -.00001877  00000+0 -10710-3 0  9996
2 46383  53.0543 172.8492 0002166  86.4582 273.6654 15.06396440166281
STARLINK-1771           
1 46384U 20062BM  23247.50410648  .00006792  00000+0  47417-3 0  9990
2 46384  53.0534 174.0203 0001582  75.4993 284.6172 15.06421369166243
STARLINK-1644           
1 46532U 20070A   23247.23872574 -.00001354  00000+0 -72064-4 0  9992
2 46532  53.0541 335.2190 0001464  94.1938 265.9218 15.06375539161221
STARLINK-1648           
1 46533U 20070B   23247.24977954 -.00000265  00000+0  11081-5 0  9994
2 46533  53.0565 335.1692 0001340 106.7902 253.3234 15.06383736161225
STARLINK-1659           
1 46534U 20070C   23247.29770254  .00005030  00000+0  35653-3 0  9997
2 46534  53.0552 334.9552 0001499  98.5133 261.6026 15.06377886161234
STARLINK-1663           
1 46535U 20070D   23247.35299281  .00005002  00000+0  35474-3 0  9991
2 46535  53.0546 334.7038 0001454  85.8190 274.2965 15.06367564161232
STARLINK-1672           
1 46537U 20070F   23247.37879364  .00006130  00000+0  43035-3 0  9996
2 46537  53.0537 334.5892 0001231  85.7880 274.3250 15.06374176161244
STARLINK-1678           
1 46538U 20070G   23247.35667754  .00009772  00000+0  67459-3 0  9994
2 46538  53.0543 334.6896 0001454 100.8361 259.2791 15.06369516161230
STARLINK-1687           
1 46541U 20070K   23247.46909117  .00005355  00000+0  37831-3 0  9996
2 46541  53.0546 314.1838 0000660  90.7138 269.3927 15.06376287161532
STARLINK-1692           
1 46542U 20070L   23247.53728881  .00008443  00000+0  58530-3 0  9992
2 46542  53.0553 333.8775 0001301  79.0846 281.0289 15.06380213161286
STARLINK-1693           
1 46543U 20070M   23247.65522913  .00017960  00000+0  12226-2 0  9999
2 46543  53.0562 333.3485 0001294  70.3580 289.7548 15.06368619161302
STARLINK-1694           
1 46544U 20070N   23247.58472189  .00018206  00000+0  12369-2 0  9993
2 46544  53.0544 318.6646 0001689  78.5775 281.5404 15.06431215161496
STARLINK-1696           
1 46545U 20070P   23247.62578506  .00024490  00000+0  16576-2 0  9995
2 46545  53.0544 333.4793 0001178  94.1939 265.9185 15.06393012161285
STARLINK-1697           
1 46546U 20070Q   23247.54466399  .00013011  00000+0  89131-3 0  9998
2 46546  53.0556 333.8450 0002663  88.0443 272.0851 15.06375448160972
STARLINK-1698           
1 46547U 20070R   23247.50685654  .00021370  00000+0  14504-2 0  9990
2 46547  53.0536 334.0060 0001116  87.3549 272.7568 15.06369041161269
STARLINK-1699           
1 46548U 20070S   23247.51885886  .00019806  00000+0  13457-2 0  9998
2 46548  53.0537 333.9622 0001355  90.7371 269.3773 15.06374511161267
STARLINK-1700           
1 46549U 20070T   23247.61469796 -.00001679  00000+0 -93899-4 0  9999
2 46549  53.0558 333.5290 0001537  92.8727 267.2438 15.06384142160982
STARLINK-1701           
1 46550U 20070U   23247.53360138  .00005279  00000+0  37314-3 0  9999
2 46550  53.0561 333.8926 0001382  83.9304 276.1842 15.06386211161266
STARLINK-1664           
1 46553U 20070X   23247.45527552  .00006274  00000+0  43994-3 0  9995
2 46553  53.0539 304.2527 0001413  88.5952 271.5199 15.06378173161675
STARLINK-1671           
1 46554U 20070Y   23247.50734503 -.00006031  00000+0 -38660-3 0  9995
2 46554  53.0534 319.0105 0001737  98.5559 261.5627 15.06371950161479
STARLINK-1676           
1 46556U 20070AA  23247.50042834  .00004755  00000+0  33807-3 0  9993
2 46556  53.0532 334.0390 0001515  95.7577 264.3585 15.06377994161282
STARLINK-1679           
1 46557U 20070AB  23247.61053211  .00018116  00000+0  12320-2 0  9999
2 46557  53.0544 318.5491 0001047  93.2724 266.8385 15.06398430161500
STARLINK-1680           
1 46558U 20070AC  23247.48522697  .00005471  00000+0  38612-3 0  9997
2 46558  53.0540 319.1081 0001282  91.7498 268.3638 15.06376834161446
STARLINK-1681           
1 46559U 20070AD  23247.14102328  .00000466  00000+0  50147-4 0  9993
2 46559  53.0543 305.6468 0001404  92.2849 267.8301 15.06398036161620
STARLINK-1709           
1 46561U 20070AF  23247.25207025 -.00004780  00000+0 -30234-3 0  9997
2 46561  53.0550 320.1903 0001285  90.3595 269.7541 15.06386173161436
